OBJECT_NAME,OBJECT_ID,EPOCH,MEAN_MOTION,ECCENTRICITY,INCLINATION,RA_OF_ASC_NODE,ARG_OF_PERICENTER,MEAN_ANOMALY,EPHEMERIS_TYPE,CLASSIFICATION_TYPE,NORAD_CAT_ID,ELEMENT_SET_NO,REV_AT_EPOCH,BSTAR,MEAN_MOTION_DOT,MEAN_MOTION_DDOT
SMDC ONE 1.2,2012-048B,2026-05-16T21:33:48.758400,15.20346596,.0099381,64.6580,280.2950,187.2840,172.6849,0,U,38759,999,11139,.41945E-3,.10262E-3,0
CINEMA,2012-048G,2026-05-16T14:13:56.235936,15.46213283,.0048447,64.6425,192.8032,186.8769,173.1711,0,U,38764,999,11235,.54188E-3,.27862E-3,0
AEROCUBE 4.5A,2012-048K,2026-05-17T03:19:42.517920,15.78874096,.0018456,64.6276,138.9224,216.5912,143.3983,0,U,38767,999,36773,.82645E-3,.150733E-2,0
METOP-B,2012-049A,2026-05-17T03:31:36.491232,14.21423449,.0003488,98.6524,189.2620,84.3964,275.7611,0,U,38771,999,70885,.47425E-4,.6E-6,0
BEIDOU-2 M6,2012-050B,2026-05-16T03:36:21.648384,1.86230812,.00143025,56.5176,63.9535,352.0732,7.8852,0,U,38775,999,9271,0,-.44E-6,0
ASTRA 2F,2012-051A,2026-05-17T04:14:00.239424,1.00268816,.0000597,0.0555,259.1608,313.0576,114.3769,0,U,38778,999,4082,0,.158E-5,0
GSAT-10,2012-051B,2026-05-17T02:46:51.724416,1.00273188,.000721,0.0665,262.7544,179.2204,277.5002,0,U,38779,999,4978,0,-.156E-5,0
VRSS-1,2012-052A,2026-05-17T04:26:48.451200,14.79957981,.001745,97.6135,115.1081,343.8354,16.2300,0,U,38782,999,73502,.10591E-3,.753E-5,0
NAVSTAR 67 (USA 239),2012-053A,2026-05-16T09:47:31.089408,2.00566894,.0178706,53.5795,144.9011,65.3415,296.5469,0,U,38833,999,9880,0,.88E-6,0
GSAT0103 (GALILEO-FM3),2012-055A,2026-05-16T19:11:49.180992,1.70473321,.00056455,55.7880,102.4060,299.2123,60.6822,0,U,38857,999,8447,0,.3E-6,0
SJ-9A,2012-056A,2026-05-17T04:16:35.217696,14.85402645,.0025661,97.6693,110.2574,3.1740,356.9633,0,U,38860,999,69498,.98494E-4,.8E-5,0
SJ-9B,2012-056B,2026-05-16T21:51:33.723072,14.91200879,.0014258,97.5973,122.1660,324.4805,35.5464,0,U,38861,999,73506,.13513E-3,.1291E-4,0
INTELSAT 23 (IS-23),2012-057A,2026-05-17T04:25:42.787200,1.00275359,.0000593,0.0113,295.6692,156.1873,156.4621,0,U,38867,999,4964,0,-.276E-5,0
BEIDOU-2 G6,2012-059A,2026-05-16T21:39:17.099136,1.00270875,.0010254,4.3420,73.8472,320.0984,249.5555,0,U,38953,999,4959,0,-.167E-5,0
LUCH-5B,2012-061A,2026-05-17T00:35:57.479712,1.00270161,.0001578,10.4169,50.1851,172.0827,5.1519,0,U,38977,999,4929,0,-.134E-5,0
YAMAL 300K,2012-061B,2026-05-17T03:15:26.482752,1.00269417,.0000436,0.0151,281.3756,286.0457,259.2529,0,U,38978,999,4932,0,.79E-6,0
STAR ONE C3,2012-062A,2026-05-17T02:01:56.733024,1.00270690,.000239,0.0137,291.1913,145.9455,113.1547,0,U,38991,999,4945,0,-.24E-5,0
EUTELSAT 21B,2012-062B,2026-05-17T04:12:07.919424,1.00273685,.0003062,0.0708,7.7401,51.7719,260.0018,0,U,38992,999,4951,0,.138E-5,0
ECHOSTAR 16,2012-065A,2026-05-17T03:57:38.661120,1.00271627,.0002093,0.0137,319.2895,97.9972,175.4846,0,U,39008,999,4933,0,0,0
YAOGAN-16 01A,2012-066A,2026-05-17T02:43:51.970944,13.45513857,.0433098,63.3556,10.0605,26.8894,335.3879,0,U,39011,999,66196,.61363E-4,-.27E-6,0
YAOGAN-16 01B,2012-066B,2026-05-17T02:50:22.301088,13.45511520,.0433266,63.3560,10.2681,26.6330,335.6257,0,U,39012,999,66192,.44688E-4,-.44E-6,0
YAOGAN-16 01C,2012-066C,2026-05-17T04:36:54.664704,13.45503207,.0433389,63.3572,9.5702,26.1967,336.0295,0,U,39013,999,66196,.12498E-3,.4E-6,0
ZHONGXING-12,2012-067A,2026-05-17T04:10:51.592800,1.00273093,.0002896,0.0075,47.7899,5.1065,332.1737,0,U,39017,999,4919,0,-.199E-5,0
PLEIADES 1B,2012-068A,2026-05-17T05:00:30.854880,14.58539664,.0001286,98.1956,212.6856,103.4940,256.6403,0,U,39019,999,71633,.8418E-4,.346E-5,0
EUTELSAT 70B,2012-069A,2026-05-17T04:26:06.579168,1.00270917,.0004511,0.0644,355.6254,54.1098,322.1940,0,U,39020,999,4919,0,-.35E-6,0
YAMAL 402,2012-070A,2026-05-17T04:21:37.008576,1.00270617,.0003655,1.1862,84.5090,328.1433,302.5455,0,U,39022,999,4908,0,.94E-6,0
GOKTURK 2,2012-073A,2026-05-17T03:47:05.648064,14.75509122,.0002207,97.6836,336.1429,83.4710,276.6751,0,U,39030,999,71993,.22649E-4,.107E-5,0
SKYNET 5D,2012-075A,2026-05-17T04:20:59.568000,1.00270002,.0003455,0.0705,339.0756,80.8230,292.9977,0,U,39034,999,4884,0,.108E-5,0
MEXSAT 3,2012-075B,2026-05-17T04:37:38.585280,1.00269790,.0001179,0.0150,314.9173,118.1494,116.4289,0,U,39035,999,674,0,0,0
COSMOS 2482 (RODNIK-S 4),2013-001A,2026-05-17T05:05:17.579328,12.42995429,.0028752,82.4996,239.6239,93.2753,267.1617,0,U,39057,999,60486,.11374E-3,.26E-6,0
COSMOS 2483 (RODNIK-S 5),2013-001B,2026-05-17T03:40:31.363392,12.44024377,.0017755,82.5013,234.2434,82.6212,277.6885,0,U,39058,999,59773,.75295E-3,.116E-5,0
COSMOS 2484 (RODNIK-S 6),2013-001C,2026-05-17T03:44:39.948288,12.42937918,.0027565,82.5029,241.1823,101.9696,258.4476,0,U,39059,999,60470,-.32088E-3,-.34E-6,0
TDRS 11,2013-004A,2026-05-17T03:16:03.923328,1.00271802,.0005346,3.4759,30.7326,11.9802,66.7088,0,U,39070,999,4638,0,.86E-6,0
GLOBALSTAR M097,2013-005A,2026-05-16T23:08:03.621120,12.62251046,.0000645,52.0064,338.3801,96.7707,263.3233,0,U,39072,999,61296,.59702E-4,-.93E-6,0
GLOBALSTAR M093,2013-005B,2026-05-17T00:24:04.455072,12.62265050,.0000507,52.0121,331.5560,91.9259,268.1666,0,U,39073,999,61292,.61394E-4,-.93E-6,0
GLOBALSTAR M094,2013-005C,2026-05-17T00:24:03.652416,12.62268018,.0000393,51.9956,245.7045,145.7907,214.2984,0,U,39074,999,61453,.32401E-4,-.98E-6,0
GLOBALSTAR M096,2013-005D,2026-05-17T02:37:21.342720,12.62264777,.0000632,52.0081,294.1991,119.8379,240.2551,0,U,39075,999,61346,.32121E-5,-.103E-5,0
GLOBALSTAR M078,2013-005E,2026-05-16T22:10:17.481216,12.62261863,.0000886,51.9897,18.8134,149.7911,210.3006,0,U,39076,999,61206,.97328E-5,-.102E-5,0
GLOBALSTAR M095,2013-005F,2026-05-17T00:42:54.981792,12.62262789,.0000428,52.0103,16.0517,102.8156,257.2759,0,U,39077,999,61193,.88949E-4,-.88E-6,0
AMAZONAS 3,2013-006A,2026-05-17T03:48:32.678784,1.00273097,.0000877,0.0209,224.0842,184.8932,182.0284,0,U,39078,999,4460,0,-.274E-5,0
AZERSPACE 1,2013-006B,2026-05-17T04:19:07.248000,1.00268232,.0000787,0.0158,21.8189,32.3648,291.5089,0,U,39079,999,4849,0,.141E-5,0
LANDSAT 8,2013-008A,2026-05-17T04:36:33.924384,14.57114120,.0001286,98.1839,207.7568,101.6855,258.4488,0,U,39084,999,69338,.53461E-4,.196E-5,0
SARAL,2013-009A,2026-05-17T04:12:57.443040,14.32847812,.000244,98.5559,324.1357,44.7664,315.3717,0,U,39086,999,69116,.31464E-4,.42E-6,0
SAPPHIRE,2013-009C,2026-05-17T03:19:38.756064,14.35231518,.0010852,98.4254,317.3331,347.7854,12.3067,0,U,39088,999,69212,.33067E-4,.52E-6,0
NEOSSAT,2013-009D,2026-05-16T23:45:23.385600,14.35814890,.0010622,98.4172,317.7657,345.9408,14.1481,0,U,39089,999,69226,.37341E-4,.65E-6,0
STRAND-1,2013-009E,2026-05-16T17:25:26.820768,14.37143382,.00079719,98.3916,317.7362,332.7119,27.3648,0,U,39090,999,69254,.72074586E-4,.171E-5,0
BRITE-AUSTRIA,2013-009F,2026-05-16T10:43:20.009568,14.36528593,.000972,98.3987,316.6696,341.7953,18.2885,0,U,39091,999,69249,.50264E-4,.105E-5,0
SBIRS GEO-2 (USA 241),2013-011A,2026-05-17T03:51:47.369088,1.00271525,.0002235,4.4240,52.4808,358.0350,192.4983,0,U,39120,999,4822,0,-.279E-5,0
EUTELSAT 117 WEST A,2013-012A,2026-05-17T04:45:38.754144,1.00271513,.0002553,0.0610,80.6517,329.0873,139.7765,0,U,39122,999,4812,0,-.5E-7,0
ANIK G1,2013-014A,2026-05-17T04:37:38.585280,1.00271406,.0001628,0.0415,94.2278,295.9307,166.8497,0,U,39127,999,4794,0,-.66E-6,0
GAOFEN-1,2013-018A,2026-05-17T03:51:57.839904,14.76539507,.001727,97.9109,209.8569,11.1040,349.0548,0,U,39150,999,70366,.93917E-4,.605E-5,0
NEE-01 PEGASO,2013-018B,2026-05-16T20:17:00.448512,14.93493026,.00113048,98.1182,279.9712,266.7567,93.2359,0,U,39151,999,70602,.11476603E-3,.1147E-4,0
COSMOS 2485 [GLONASS-M],2013-019A,2026-05-16T22:31:55.999776,2.13103279,.0023931,65.4034,74.6527,236.5180,123.2327,0,U,39155,999,10161,0,-.13E-6,0
ZHONGXING-11,2013-020A,2026-05-17T09:41:55.232736,1.00270212,.0001777,0.0601,79.1088,352.4693,46.9284,0,U,39157,999,4759,0,-.283E-5,0
PROBA-V,2013-021A,2026-05-17T04:39:02.609280,14.23589973,.0003406,98.3573,117.3338,209.0191,151.0799,0,U,39159,999,67670,.30502E-4,.28E-6,0
VNREDSAT 1,2013-021B,2026-05-17T03:29:33.905184,14.64821758,.0001456,97.9106,191.7508,98.7021,261.4348,0,U,39160,999,69574,.10897E-3,.536E-5,0
EUTELSAT 7B,2013-022A,2026-05-17T01:46:38.521344,1.00272403,.0005277,0.0832,29.7206,359.1332,239.5976,0,U,39163,999,4763,0,.57E-6,0
NAVSTAR 68 (USA 242),2013-023A,2026-05-15T06:38:45.730752,2.00563577,.01417999,54.5310,270.3138,50.8427,310.3815,0,U,39166,999,9522,0,-.31E-6,0
WGS F5 (USA 243),2013-024A,2026-05-17T04:25:42.787200,1.00270730,.0000265,0.0168,293.7825,351.1431,323.8842,0,U,39168,999,4686,0,-.276E-5,0
SES-6,2013-026A,2026-05-17T03:54:24.617088,1.00270358,.0002578,0.0198,322.3990,88.7677,201.8169,0,U,39172,999,4741,0,-.253E-5,0
COSMOS 2486,2013-028A,2026-05-17T03:52:11.020224,14.56179868,.0012142,98.0116,105.7702,109.3944,250.8568,0,U,39177,999,68686,.33577E-4,.105E-5,0
O3B FM5,2013-031A,2026-05-17T01:22:05.016000,5.00116461,.0003076,0.1014,353.9594,48.9071,317.1600,0,U,39188,999,23548,0,-.14E-6,0
O3B FM4,2013-031B,2026-05-16T09:02:34.414080,5.00115203,.0005147,0.0466,345.7112,63.6116,310.7249,0,U,39189,999,23545,0,-.13E-6,0
O3B FM2,2013-031C,2026-05-17T01:00:30.415680,5.00115989,.0002772,0.0429,339.3582,72.4519,308.2174,0,U,39190,999,23555,0,-.14E-6,0
O3B PFM,2013-031D,2026-05-17T01:20:50.315424,5.00115961,.0005381,0.0695,357.8147,58.6521,303.5871,0,U,39191,999,23511,0,-.14E-6,0
IRIS,2013-033A,2026-05-17T02:52:45.605856,14.85816476,.0025766,97.9348,336.4930,62.3823,298.0004,0,U,39197,999,69576,.8236E-4,.665E-5,0
IRNSS-1A,2013-034A,2026-05-10T21:46:25.438368,1.00276702,.00166344,35.6409,64.4033,186.4157,359.4683,0,U,39199,999,4699,0,.87E-6,0
SJ-11-05,2013-035A,2026-05-17T04:21:44.242848,14.64852984,.0009507,98.2851,321.7795,340.0104,20.0725,0,U,39202,999,68469,.4018E-4,.165E-5,0
MUOS-2,2013-036A,2026-05-17T01:29:37.332960,1.00274466,.0050492,4.9346,45.4827,179.3201,204.3635,0,U,39206,999,4688,0,-.5E-7,0
